[{"OBJECT_NAME":"CORVUS BC2","OBJECT_ID":"2017-042X","EPOCH":"2026-03-09T22:14:39.055488","MEAN_MOTION":15.05610206,"ECCENTRICITY":0.00145863,"INCLINATION":97.3955,"RA_OF_ASC_NODE":234.2405,"ARG_OF_PERICENTER":92.385,"MEAN_ANOMALY":267.9047,"EPHEMERIS_TYPE":0,"CLASSIFICATION_TYPE":"U","NORAD_CAT_ID":42846,"ELEMENT_SET_NO":999,"REV_AT_EPOCH":47212,"BSTAR":0.00034626467,"MEAN_MOTION_DOT":4.947e-5,"MEAN_MOTION_DDOT":0},{"OBJECT_NAME":"STARLINK-6273","OBJECT_ID":"2023-061X","EPOCH":"2026-03-09T07:38:37.879008","MEAN_MOTION":15.02519007,"ECCENTRICITY":0.00012662,"INCLINATION":43.0035,"RA_OF_ASC_NODE":186.9298,"ARG_OF_PERICENTER":268.9572,"MEAN_ANOMALY":91.1126,"EPHEMERIS_TYPE":0,"CLASSIFICATION_TYPE":"U","NORAD_CAT_ID":56395,"ELEMENT_SET_NO":999,"REV_AT_EPOCH":15755,"BSTAR":-1.5324741e-5,"MEAN_MOTION_DOT":-4.1e-6,"MEAN_MOTION_DDOT":0}]
