CORVUS BC2              
1 42846U 17042X   26068.92684092  .00004947  00000+0  34626-3 0  9997
2 42846  97.3955 234.2405 0014586  92.3850 267.9047 15.05610206472122
STARLINK-6273           
1 56395U 23061X   26068.31849397 -.00000410  00000+0 -15325-4 0  9992
2 56395  43.0035 186.9298 0001266 268.9572  91.1126 15.02519007157555
